ORBCOMM FM103           
1 40091U 14040F   24306.92289220  .00003782  00000+0  86345-3 0  9990
2 40091  47.0065  10.4973 0002815 302.8893  57.1721 14.57345026530942
ORBCOMM FM114           
1 41179U 15081A   24306.26688294  .00004449  00000+0  10091-2 0  9990
2 41179  47.0017 282.7837 0002399   7.1790 352.9129 14.57343946471219
ORBCOMM FM119           
1 41180U 15081B   24306.86026150  .00003876  00000+0  88434-3 0  9995
2 41180  46.9990 189.2117 0000844 103.9883 256.1096 14.57324775472557
ORBCOMM FM105           
1 41181U 15081C   24306.32805212  .00001964  00000+0  60510-3 0  9992
2 41181  46.9994 174.8176 0001590   3.4017 356.6873 14.44788304467796
ORBCOMM FM110           
1 41182U 15081D   24306.65462934  .00004632  00000+0  10489-2 0  9993
2 41182  47.0008 280.3387 0001068 207.6419 152.4409 14.57349300471140
ORBCOMM FM118           
1 41183U 15081E   24306.90681559  .00005067  00000+0  11445-2 0  9994
2 41183  47.0029 279.4982 0001482 202.4908 157.5912 14.57323364471282
ORBCOMM FM112           
1 41184U 15081F   24306.83785723  .00004722  00000+0  10686-2 0  9998
2 41184  46.9972 188.5120 0001186  72.6362 287.4653 14.57343808472498
ORBCOMM FM113           
1 41185U 15081G   24306.40383848  .00005273  00000+0  11896-2 0  9990
2 41185  46.9991 190.8551 0001102 102.8526 257.2482 14.57318806472417
